{"type":"FeatureCollection","name":"sg_boundary","crs":{"type":"name","properties":{"name":"urn:ogc:def:crs:EPSG::4326"}},"features":[{"type":"Feature","properties":{"name":"Singapore"},"geometry":{"type":"MultiPolygon","coordinates":[[[[103.69729101376821,1.307543927147306],[103.69692809525544,1.307788558097595],[103.6953318533546,1.307783859854152],[103.6952543196261,1.307949452403871],[103.69578902975405,1.306706552867114],[103.69655446658916,1.306727505586243],[103.69692211839205,1.306434953687087],[103.69742069103724,1.305769277147605],[103.69796688398185,1.305331059200689],[103.69869436234737,1.303848202140961],[103.6992385765423,1.303570701575998],[103.69937951506007,1.303364283005291],[103.69955323465591,1.302655688259284],[103.69941734400284,1.302287393014157],[103.69941007929646,1.299526264155937],[103.69617859540493,1.299617810079053],[103.69619764085445,1.300085167416749],[103.69574557062214,1.300500976536121],[103.69561279612415,1.300492788389118],[103.69529303218343,1.303161936009141],[103.69436886628345,1.304906706844447],[103.69466945591667,1.305896792032998],[103.69557447498774,1.306628543420298],[103.69506089085876,1.307864435267413],[103.69402734346461,1.306614946398817],[103.69354844309676,1.305091689057355],[103.69352655017502,1.304292172082728],[103.69373889800993,1.303421085210229],[103.69366382096236,1.301856995845097],[103.6937797549203,1.301621859117218],[103.69375052682788,1.300940565349131],[103.69254053017497,1.300312960870111],[103.69097386444292,1.299888925637148],[103.68961358833263,1.299890575430946],[103.68885757415387,1.300027768938391],[103.68873083380538,1.299839631751879],[103.68774472952806,1.299874379103374],[103.6877600024872,1.299756858164594],[103.68388183374435,1.299095407052634],[103.68361877505984,1.300831900591625],[103.6835181283145,1.300849384935578],[103.68315751213053,1.304730033502856],[103.68299474597573,1.305084470176735],[103.6830293399758,1.305839921704578],[103.68285090025012,1.306121520127162],[103.68250790790923,1.308953676893917],[103.68193750228527,1.309212402758058],[103.68132814574481,1.30918396237404],[103.68076205703736,1.308885248819291],[103.68073172933894,1.307889065621306],[103.68108659100082,1.30565985419223],[103.68109804358866,1.304229254387159],[103.68132069565506,1.303896101126392],[103.68154719283775,1.302972381867251],[103.68141498239324,1.302953074771609],[103.68158394434597,1.301601751747077],[103.68145706219987,1.301584579277832],[103.68155097235542,1.301225589585931],[103.68164585767849,1.301238003170438],[103.68175988330503,1.300324234048608],[103.68163867595476,1.300073836122097],[103.68190000548833,1.298000874173129],[103.68012260550847,1.297184372122336],[103.67977746116321,1.297579403327984],[103.67923156647458,1.297053682652068],[103.67911128905003,1.297181723827944],[103.67844353704228,1.29661457577586],[103.6732731616221,1.302232958191128],[103.67321524807838,1.302713816923072],[103.67301796248256,1.302625672489819],[103.6727153528167,1.306810853123779],[103.66879327633914,1.306317159312982],[103.66899305602382,1.305123951304114],[103.66887442964612,1.304443157707011],[103.66901251406132,1.304222412256823],[103.6694993087994,1.300434470885012],[103.66963772272629,1.300422039530611],[103.67041178590975,1.299619277702616],[103.67052787740634,1.299633780335766],[103.67089999645502,1.298960487671586],[103.67131166918679,1.29870853753838],[103.67434171924165,1.295441281853285],[103.67427721033303,1.295340920802329],[103.67398540101203,1.295591959386431],[103.67420629413294,1.295395942187117],[103.6742683834127,1.295119370710036],[103.67282684235204,1.293593648013473],[103.67228048953173,1.293402910519553],[103.67186603117004,1.293090255381465],[103.66658593825908,1.288675725764248],[103.66520333873244,1.290355873668365],[103.66545806722502,1.290599000912369],[103.66543572907328,1.290729959939822],[103.66473883548069,1.291878799197314],[103.65936067415106,1.294809527846747],[103.65924451422967,1.29460450669089],[103.65863933667364,1.29491822458023],[103.65902437258688,1.295742890682169],[103.65770017682442,1.296792424829319],[103.65660415126206,1.295865456322423],[103.65586802277817,1.296681640497447],[103.65682494209841,1.297500392832662],[103.65375160412779,1.301030981531225],[103.65177802844252,1.29935542795345],[103.64980778357607,1.301688506704521],[103.65290509981706,1.305093069247256],[103.6531214518379,1.30520531596512],[103.65384969561357,1.306315723858805],[103.65443527284901,1.306995021873856],[103.65452703855435,1.306903326313141],[103.65473550418609,1.307106180217867],[103.65576547103939,1.30847329390839],[103.65748723006728,1.310058090597442],[103.65732445422756,1.310251838320333],[103.657483354513,1.310420810306732],[103.65709318792928,1.310750956564797],[103.65716368179973,1.311105860621836],[103.65620569087078,1.311468765778749],[103.65627292631088,1.311634540727309],[103.65608296035552,1.311495489928083],[103.65558607301921,1.310758991333415],[103.65520534541798,1.310579964070901],[103.65518982125937,1.310351134473956],[103.6546765051437,1.309999027506571],[103.65475578476261,1.309907805846866],[103.65420698229906,1.309319481871997],[103.65412158306138,1.309405634134829],[103.65420697690837,1.309319473732363],[103.65390138692734,1.30899919063706],[103.65372521182142,1.309142659223855],[103.65334219525832,1.30884840702163],[103.65278274225484,1.30796778828929],[103.65126099636086,1.306669035461073],[103.65104537653694,1.306196662469671],[103.65080631826943,1.306011266553053],[103.65087513197747,1.305890480717783],[103.65045249644027,1.305564142206449],[103.65015463869875,1.305538344314692],[103.6497678954088,1.305301288576144],[103.64933189000928,1.305355632065015],[103.64678098652661,1.307824624096221],[103.64642976429978,1.308428345761429],[103.64633922118735,1.309066093570308],[103.64659855220654,1.309628665574874],[103.64702976043932,1.30972825161495],[103.64748432971048,1.310111654610573],[103.64829303142356,1.31115702656426],[103.64882694437891,1.311614552100591],[103.64900492415846,1.312024020623701],[103.64953753252925,1.312521345932753],[103.6495052460632,1.31266837439862],[103.64965938380811,1.312649755979438],[103.65036132873412,1.313220108980485],[103.65047442055781,1.313602821691461],[103.65069232261084,1.313660056590164],[103.65186933492268,1.314796751749643],[103.65207940416887,1.315319460137504],[103.65168771812729,1.315567795899436],[103.65174666942613,1.315736381987741],[103.65152468425192,1.315975876450048],[103.6504206468949,1.316950385163871],[103.64963808831594,1.317455193457832],[103.64855930282022,1.316459932887722],[103.64754080565594,1.315167182765054],[103.64647436290771,1.314143539117443],[103.64638682802484,1.313883058799404],[103.64553404630261,1.313286740966399],[103.64537968745341,1.313004994077776],[103.64414298312991,1.311825931612827],[103.64373320551884,1.311540574903864],[103.64322024683746,1.311392293102603],[103.64190351213968,1.31221022972493],[103.64133188442135,1.312809767918939],[103.64082208863437,1.313013236508644],[103.63986355277073,1.314123502108148],[103.63764226898428,1.316201560328098],[103.63454858362547,1.312027216069906],[103.63454190997126,1.311756122096661],[103.63801106494684,1.308828799188466],[103.6450345291488,1.300617338029274],[103.64648898459276,1.291781060160352],[103.64968985483058,1.28587687185653],[103.65017411905676,1.284257180455598],[103.65014029598203,1.283025801071909],[103.64969672657185,1.281623532265818],[103.64883966406842,1.280436171016464],[103.64768354573651,1.279581285793049],[103.64675572998485,1.279213296319635],[103.64580061673487,1.279085730475955],[103.64071993510171,1.279439528039695],[103.64069112140504,1.279060009459807],[103.64043811113928,1.279079678247962],[103.6397358293032,1.269808178178723],[103.6433543671472,1.269808104683204],[103.64335501855393,1.260853796233662],[103.6173426995724,1.260851755255541],[103.61734326448102,1.253978629631586],[103.64435426987932,1.253980732232188],[103.64435470035374,1.247963776051446],[103.63778532919466,1.245027084076041],[103.61734399571421,1.245025478604342],[103.61734455350712,1.238152352148579],[103.64983862452236,1.238154815830065],[103.64983923787346,1.229201645905846],[103.61734527547132,1.229199200044653],[103.61734588393504,1.221602585665225],[103.6569175285141,1.221605493420225],[103.6585753267312,1.217166317916123],[103.64806401875815,1.213277032926859],[103.644677251466,1.211247855615471],[103.64325180456528,1.210715844042011],[103.64247951314637,1.21066451401803],[103.609305713363,1.218992403336871],[103.60784903452564,1.21958078854296],[103.60693717013265,1.220283046986792],[103.60624589455884,1.221205770144166],[103.60582587963036,1.222281319234326],[103.60571267211442,1.223044610480172],[103.6057015406138,1.243675228736844],[103.61243453437791,1.243682874734255],[103.61243590566428,1.246390797103799],[103.6088477132016,1.24639263510287],[103.6088471565594,1.25294927343228],[103.61199401813727,1.25294954288359],[103.61199379017225,1.255662826786193],[103.6097477329889,1.255662634439655],[103.60974734422058,1.2602300808977],[103.60570883484813,1.260229728889555],[103.6058193365602,1.262016152953289],[103.61096073051448,1.276094351583602],[103.61140734907883,1.276987389806748],[103.6120376630579,1.277759479695173],[103.61282107448643,1.278373370681883],[103.6137193237781,1.278799082564247],[103.61574034159923,1.279453843938176],[103.61660254511898,1.279916265207017],[103.61765034220066,1.28069410421548],[103.61908709952785,1.282376720397949],[103.61995969098929,1.284257828011173],[103.6203211492486,1.286460290833256],[103.62023634309462,1.287767930178814],[103.6200316425827,1.288729420665553],[103.61957666054117,1.289957228980645],[103.61862201201399,1.291808608664939],[103.61821662317276,1.293346859842375],[103.61750751191833,1.293430793355252],[103.61768181044813,1.294478723618076],[103.6175435574451,1.294506585012587],[103.61735992318029,1.294085594070638],[103.61781730847449,1.296727146542784],[103.6178377276148,1.296303534158975],[103.61799264435341,1.29627258399797],[103.61814824812997,1.297160767705197],[103.61869784919851,1.297067991324974],[103.63037292485745,1.328649811010906],[103.63147623173421,1.33124553874154],[103.63196263615383,1.333225230454801],[103.63225938464417,1.333644624196437],[103.63272320376598,1.336013575449223],[103.63343278492079,1.337095048053892],[103.63402225164903,1.339011225049093],[103.6344261985168,1.339831941279244],[103.63455746877266,1.340483068801924],[103.63477038093514,1.340775982756701],[103.63477852796697,1.340978697309863],[103.63432267341754,1.341467977069464],[103.63481768919722,1.341999002897786],[103.63453269958039,1.34227131918588],[103.63568139509628,1.343455306637636],[103.6357167022913,1.343888115868421],[103.63602041882562,1.344544743256176],[103.6361794400873,1.344518983758511],[103.6365104270839,1.345433475953187],[103.63649069583089,1.345835280195872],[103.63639077383051,1.345878328615385],[103.635945396118,1.345434447421977],[103.63541941403885,1.345464881442769],[103.63463756587629,1.346322864266789],[103.63426909915799,1.347145565552942],[103.63411951694472,1.348035361072803],[103.63419573120503,1.348936280693007],[103.63446061271061,1.34971786035925],[103.63439351541221,1.349565681972852],[103.6331745229399,1.350550076367856],[103.6332968271167,1.350795649782188],[103.63458045279981,1.349945638449217],[103.6351044201134,1.350650450259774],[103.63565348209336,1.351117577703376],[103.63628244476227,1.351464867724097],[103.63705662523626,1.351680466704259],[103.6377658509442,1.35136741706472],[103.6379944203865,1.35099020114751],[103.6380339230903,1.350525103285768],[103.63821222065998,1.350464947967765],[103.63878853985912,1.353091937209407],[103.63935817007444,1.35413808433279],[103.64014810987858,1.356303312221955],[103.64012134461515,1.357105626819523],[103.64039393765042,1.358099013164727],[103.6405936070012,1.358040597641031],[103.64056831971254,1.357688808914781],[103.64067175159437,1.357673021672472],[103.64095594744454,1.358105513559861],[103.64255094459948,1.359167884065252],[103.64376387842425,1.360735488209791],[103.64450450247891,1.362231059593917],[103.64468354386923,1.362934502543655],[103.64533004719334,1.363735296776045],[103.64558876115353,1.364736976576181],[103.64651344445197,1.366456703057752],[103.64679921370445,1.367612750955977],[103.64732576441139,1.368279905529088],[103.6476176901988,1.36889929246977],[103.64842627639288,1.36983037632784],[103.6490826711784,1.370962522614967],[103.64938323985548,1.371761476122903],[103.64913761513567,1.372158225880602],[103.64934598313094,1.372636500822469],[103.64954835481312,1.372823860900217],[103.65076129491868,1.372993072372134],[103.65106472817249,1.373174056229114],[103.65117012824261,1.37376802874902],[103.6509054814554,1.374322894570984],[103.65140317917464,1.374713830479936],[103.65163229870403,1.374653629437483],[103.6519281570517,1.374325968190043],[103.65236492328397,1.373221703249063],[103.65255379845348,1.372983090557392],[103.65271455885228,1.373012819140826],[103.65270330656809,1.373485336302636],[103.65294588709045,1.373884539133388],[103.65272190784331,1.374645373517035],[103.65291133992083,1.374746009705033],[103.65342704231792,1.374649969679061],[103.65357643840643,1.374815224714132],[103.65461811688002,1.376924711823988],[103.6549992710398,1.378432390666836],[103.65563316727173,1.379611979520321],[103.6562104487037,1.380367419255261],[103.65645269844815,1.381100000547434],[103.65682941371007,1.381459196161322],[103.65722334515904,1.382264873686208],[103.65737371860887,1.382724190305713],[103.65695360517836,1.383504163902005],[103.6571416167179,1.383639604946838],[103.65799183651382,1.383349438432687],[103.65747250517143,1.383866445827212],[103.6574563533378,1.384232549403366],[103.65771489796475,1.384373059187234],[103.65806254098715,1.384837185399063],[103.65852735349452,1.385042915702175],[103.65878608093271,1.385511653800333],[103.65913940898031,1.385762714015444],[103.6598130818903,1.385937306153295],[103.65988826418986,1.385077137818957],[103.65998935481208,1.384960594056573],[103.66015888644219,1.385123349729743],[103.66044349552037,1.385992560106131],[103.65995226488128,1.386338973433902],[103.65983250604577,1.386990312706111],[103.66042188440095,1.388041542586882],[103.661253699189,1.388348389698418],[103.66160454337643,1.388860823967825],[103.66146658452273,1.389706056812576],[103.6616128797202,1.390536626361388],[103.66246716651568,1.391850615412379],[103.66273906499835,1.392517557372858],[103.66237112573835,1.394857613744758],[103.6628502558782,1.397307401862872],[103.66205355536822,1.398732793983897],[103.66269442964605,1.400261808094534],[103.66292391279511,1.400214088247726],[103.66306981192865,1.399993366333854],[103.66325336668834,1.400323230597053],[103.66272666995029,1.400693552834197],[103.66297036400438,1.401456449000987],[103.66339347455164,1.401897142926522],[103.66388272542453,1.40195896719842],[103.66347625122157,1.402164227291732],[103.66343657934806,1.40274475571312],[103.66302804128898,1.403255772440706],[103.66288467309903,1.404346573837737],[103.6626135436571,1.404757780881534],[103.66248793686904,1.405533499976748],[103.66282983551,1.405845965215515],[103.6631907939717,1.405786812200823],[103.66431258305795,1.406310875873144],[103.66507926473459,1.407746859172532],[103.66498384670643,1.408141182172055],[103.6651399472098,1.408919320290485],[103.6668696721743,1.409349208090384],[103.66735643484338,1.408991286438559],[103.66805218697178,1.408744317456996],[103.66804897407242,1.409031510375652],[103.66831084561368,1.40955843463804],[103.66959259279038,1.410221281577624],[103.66983075925968,1.411019146759655],[103.67012726468965,1.411389554793182],[103.67059925968184,1.411696944868933],[103.67042168378076,1.412068636191649],[103.67030834546969,1.412894966600231],[103.67058437393376,1.413283154691302],[103.67119248178061,1.413701029134141],[103.67212265973745,1.413486826017295],[103.67270552376085,1.413791217386098],[103.67263379877159,1.413988081696763],[103.67224616376353,1.414098990739058],[103.67180320032568,1.41462450977941],[103.67153804911217,1.415296371216683],[103.6715250402654,1.4159321980011],[103.67206097006452,1.417468779943018],[103.67196385587589,1.417761994784051],[103.67216364364987,1.418009000442454],[103.67262408704701,1.417769753377909],[103.67302478911246,1.417774753503631],[103.67308620934601,1.418530331869715],[103.67247332471275,1.418804288555193],[103.67221585513994,1.41905977673384],[103.67226535574214,1.419238377799205],[103.67272055753665,1.419382722952129],[103.67336296060977,1.419962036791628],[103.67392845975178,1.42014298977561],[103.67413073749962,1.420054583584126],[103.67415550390001,1.419771789092835],[103.67439738644643,1.419688216709449],[103.67477169266904,1.419182431976169],[103.67482705152132,1.419253008464468],[103.67437333049223,1.419989528939718],[103.67492531962384,1.420709779811747],[103.67449095948118,1.420429727267681],[103.67414272139985,1.420522105273921],[103.67363271534089,1.421281604147526],[103.67351228324665,1.422012730411206],[103.67357123751188,1.422433915027481],[103.67399309518954,1.423234031083778],[103.67390009335483,1.423506781507871],[103.67430134106864,1.425175168864411],[103.67592630798156,1.42623361168535],[103.67690582871778,1.426086415540293],[103.67640368257125,1.426307344437533],[103.67656035516104,1.426903281688017],[103.67686616819762,1.427329640765048],[103.67689433500452,1.427773701761947],[103.67739560279777,1.428163685410592],[103.67766722174372,1.428715787973887],[103.6780591224696,1.429120075554483],[103.6788007555751,1.428876107709022],[103.6789956380534,1.428526443561273],[103.68022467303183,1.428742893660798],[103.68139789116444,1.429142404610034],[103.68242164684824,1.430195407894712],[103.68259037103438,1.430203134152506],[103.68295064896763,1.430522721922048],[103.68306892255141,1.431057912286457],[103.68330606472584,1.431174271196415],[103.68436277438127,1.430514956617198],[103.6855225918192,1.430409349390263],[103.68583142296731,1.429973105732279],[103.68593930860743,1.43031125049959],[103.68574781083305,1.431268538386868],[103.68588006426927,1.431525736305662],[103.68652418809398,1.431957345208289],[103.68757588630692,1.432003411246338],[103.68777641628164,1.431712490271034],[103.68793968575629,1.432055115101001],[103.68848056029634,1.432585665747858],[103.6886032188998,1.433044160104639],[103.68923168901159,1.432905962077462],[103.68964647446725,1.433351523518392],[103.69052087887538,1.433060558811462],[103.69082956584532,1.43339383698755],[103.69112278430205,1.433483425954526],[103.69269931998446,1.433478973182157],[103.69305447967558,1.433681978944088],[103.6932697669476,1.433550460122839],[103.69347119653222,1.43390066644523],[103.69428466326553,1.434361420467752],[103.69565143849573,1.434945709171772],[103.69609624716216,1.435007024623578],[103.69619574557571,1.435173861751683],[103.69608640013337,1.435433285623532],[103.69740612062513,1.43661381859008],[103.69824473462879,1.437653965450031],[103.69952879213714,1.43868320466442],[103.70009906213826,1.439556326721366],[103.70254977596913,1.440956747360261],[103.70300122961629,1.44161504086017],[103.70329386553705,1.441722065352468],[103.70333382535964,1.44192485169806],[103.70432449846034,1.442847000733992],[103.70485898115486,1.443558963477774],[103.70649131386968,1.444820679744986],[103.70643903018758,1.444929049155596],[103.70674124028035,1.445102621228853],[103.70647983672741,1.445635199494569],[103.70662242600258,1.445718478396986],[103.70660782416851,1.44585764614641],[103.70669996812867,1.445857651319915],[103.70668911316433,1.445580331881753],[103.70699078626356,1.445326434833852],[103.70734661694021,1.445380515645603],[103.70964562593879,1.447233186792286],[103.70993506901885,1.447628456594955],[103.70987959757333,1.447779601314622],[103.71005200533632,1.447695875011435],[103.7104392687323,1.448013658982985],[103.71086218125586,1.448117117466556],[103.71147382189835,1.448608326613621],[103.71228924419086,1.448932926992361],[103.71230296077091,1.449095258835659],[103.71256921609829,1.449288979260292],[103.71476893324743,1.449855622748919],[103.71561575880787,1.450201123450243],[103.71590174966296,1.450219472523872],[103.71596049393474,1.450042303887455],[103.71603171746835,1.450275809285566],[103.7168391788167,1.450544099421867],[103.71721607480258,1.450508627234594],[103.71747916814066,1.45032225183576],[103.71756409888184,1.450577270862748],[103.71776540666953,1.450667087961512],[103.7195689465615,1.451093551272753],[103.71984508785278,1.451007634573555],[103.72147331796027,1.451306271366266],[103.7224571328189,1.451162339357012],[103.7273768137317,1.451184038038338],[103.72834958225033,1.451070769817019],[103.72907411301577,1.450748980837149],[103.7304531564957,1.449875122087159],[103.7314068169567,1.448888971141686],[103.73157212847329,1.448147946008622],[103.73139289958898,1.448222363299857],[103.7311033407561,1.448977407625848],[103.73102713215818,1.448641146011433],[103.73117896321448,1.448537400851817],[103.73111323682554,1.448340340053232],[103.73060652872942,1.447876839504026],[103.7312835605537,1.448046200342427],[103.7320526706978,1.447716916960126],[103.73263277736817,1.447104856099358],[103.73256111896191,1.446934340815589],[103.73190752919568,1.446843233184108],[103.7312498839987,1.446131482173173],[103.73203559903162,1.446787225455844],[103.73275510039886,1.446830501556271],[103.7320726618213,1.446217436385442],[103.73234774736437,1.446392015959617],[103.73266044345306,1.446003143302188],[103.73248023953464,1.446470165119702],[103.7326722342971,1.446607306672511],[103.73349034416242,1.446220355557461],[103.73386612478731,1.445614369817858],[103.73386977392644,1.445430058223214],[103.73369889763852,1.445343056456738],[103.73376978778599,1.445204154957694],[103.73405986525802,1.445178844683978],[103.73413969663841,1.44546999679544],[103.73459306411529,1.445291087681251],[103.73633775898928,1.443817192789663],[103.73677837500793,1.443720733374493],[103.73737034402,1.443076890518715],[103.73789823674036,1.442749582492241],[103.73780711594878,1.442478131539784],[103.73810426924885,1.442394352176243],[103.73803660052975,1.442089081775447],[103.73712084024648,1.441284165860908],[103.73655365662854,1.440419637207811],[103.73671158139248,1.439905096083859],[103.73679908314874,1.438727710331362],[103.7371716358118,1.438718078423091],[103.73729434662987,1.439781895146029],[103.73774639459569,1.440657749526821],[103.73820269860569,1.441058108308835],[103.73842398758359,1.44078205642626],[103.73841629642038,1.439719683396922],[103.73870828124184,1.438901280097149],[103.74225719966336,1.438907729753651],[103.74269454505276,1.439276866497903],[103.74289287984169,1.439131697994214],[103.74296570437937,1.438706851235886],[103.7429469458703,1.445457815059104],[103.74333046546514,1.446081953607662],[103.74381987816164,1.44628744245056],[103.74420346631456,1.446292592611521],[103.75793060140637,1.44339921695178],[103.75885934178594,1.443451831929676],[103.76038155217641,1.444124220283855],[103.76187493955825,1.444352539187671],[103.76426779006353,1.443329659639439],[103.7646449706792,1.443673377027832],[103.765839981684,1.443835710940161],[103.76644203342593,1.444111301843639],[103.76706280001085,1.444184051733669],[103.7668396363764,1.445000259997869],[103.76736584293575,1.446406777093126],[103.76897413477639,1.447751611507413],[103.76950630009976,1.44851424892651],[103.76979589850787,1.449244964422582],[103.76986022210708,1.449825983359566],[103.76905359910546,1.452488423457343],[103.76940800199259,1.452685973598983],[103.77061801573132,1.448706547760186],[103.77086248573916,1.448492455627563],[103.77283114495481,1.449945802887381],[103.77457087652775,1.450801557439719],[103.77633423459788,1.451261679523181],[103.7785102773147,1.452678668251994],[103.77846043017486,1.452823668111889],[103.77873066915672,1.453020563617438],[103.77885449897487,1.452917106568051],[103.7815796273135,1.454554113756217],[103.78163241670454,1.454708227515979],[103.7818031787864,1.454680422276194],[103.78232577236628,1.454979977423429],[103.782702941572,1.455441771942663],[103.78302447150892,1.455404184801464],[103.78347224137835,1.45558409074915],[103.78421719786098,1.456569311511506],[103.78473089697067,1.456824996165577],[103.78494775892985,1.45715325669794],[103.78561505972635,1.457686881534426],[103.78567942264236,1.457880760306895],[103.78717730703818,1.458687908819645],[103.78755649858861,1.459205203377279],[103.78817156966939,1.459490922341985],[103.78942578524385,1.460560899568597],[103.79097358421348,1.461214567096507],[103.79150797882907,1.461585038756908],[103.79141286683473,1.461730379915615],[103.79175596696608,1.462025189786847],[103.79638876105389,1.464971985583291],[103.79692511494487,1.465378704705666],[103.79680082517608,1.465590549784836],[103.7971724154256,1.465700200865661],[103.7970751386127,1.465861185907912],[103.7977889981866,1.466050298897659],[103.79826312196221,1.466589459820639],[103.79867706170054,1.466837307991817],[103.79908766826058,1.467048059051137],[103.79941877027169,1.466980552495966],[103.7994224750172,1.466815695250008],[103.7995927494923,1.466994717472802],[103.79963960609554,1.466780890508362],[103.79987539146066,1.466799985178635],[103.79992659188005,1.466951177416723],[103.80047963544035,1.467261906824088],[103.8010125204193,1.467778830652921],[103.80158182367997,1.468476790338017],[103.80303783120196,1.469034404958838],[103.80423982401491,1.469338694094132],[103.80475185684207,1.469604267054673],[103.80499866118143,1.469490012947585],[103.80539955378515,1.46978853934135],[103.80621835327453,1.470038379884284],[103.80864377479116,1.470571340509915],[103.80923075768852,1.470348638430194],[103.80916699256666,1.470248334789961],[103.80969742931218,1.469783407267885],[103.81118104767924,1.470074907949126],[103.81194528494258,1.470362747197105],[103.81428655496943,1.470616243518292],[103.81704592572449,1.470663018372259],[103.81703650943733,1.470753895978285],[103.81732235872438,1.470772300047726],[103.81860700651416,1.470437031568116],[103.82142711806397,1.469243896430531],[103.8221680356475,1.468637482053444],[103.82189614474186,1.468251677394391],[103.8202656991103,1.467306667334718],[103.81859086563234,1.464957793328358],[103.819399057862,1.464461746099628],[103.82053374246982,1.466148216323615],[103.82232664362338,1.467170471400797],[103.82284764843152,1.467162516424301],[103.8224570564912,1.466674078669046],[103.8228013648953,1.466166769473362],[103.82251668701473,1.465963749350598],[103.82296064721497,1.465852801434657],[103.82331914961375,1.465989438839094],[103.82339109482652,1.465784287010206],[103.82168461574103,1.462723715401268],[103.82219259555423,1.462446678886121],[103.82389267891341,1.46548932017874],[103.82415259435335,1.465810952727071],[103.82429311891217,1.465726168317609],[103.82333692740819,1.464019486456522],[103.82372189161843,1.463755495390061],[103.82227523016174,1.461222853845223],[103.82264279045687,1.461015514011604],[103.82404449302895,1.46356974953047],[103.82455400925404,1.463321075134636],[103.82753875541975,1.468586573325629],[103.83429689157343,1.464708588474821],[103.83194639901816,1.460505233034012],[103.83289910041891,1.459957867365748],[103.83526982179542,1.464139806476834],[103.83581343493707,1.464246683622027],[103.83634544506972,1.464166713715324],[103.83665386735055,1.464633694054346],[103.83730813075954,1.464807333495905],[103.84614867153279,1.461265648881011],[103.85003072267808,1.45952947764628],[103.85415776390381,1.457474772466437],[103.85819113088029,1.454855730707451],[103.85836741219622,1.454337699363502],[103.85805130327435,1.453818973505321],[103.85737422524431,1.453403983801243],[103.85503570627527,1.45248889298298],[103.85634786998585,1.449454638817634],[103.85717040441575,1.447063421460197],[103.85767122958411,1.446090649151334],[103.85875014865793,1.442400117433075],[103.860308307652,1.440178190989708],[103.86337155753567,1.436441354474914],[103.86279428101587,1.435965878377137],[103.86360582575814,1.434105928998115],[103.86441908642136,1.4343112917807],[103.86455517370925,1.434546684922701],[103.864939733608,1.434606280792072],[103.86528875288346,1.434319447036239],[103.86536214807879,1.43372097522085],[103.86515073241004,1.432894288517628],[103.86440694612544,1.431756737714661],[103.85932330632698,1.427547923320285],[103.85874610305693,1.427243952354503],[103.85815272435673,1.427189107404229],[103.85777773936246,1.426525346426083],[103.86379403935014,1.423822929563239],[103.86516844375639,1.424542334031832],[103.86691508986442,1.424787824838995],[103.86919549166706,1.426793946530593],[103.8691271917351,1.427506775182044],[103.86923947642488,1.427867985310438],[103.86991283221062,1.428731098391348],[103.87076124039808,1.429409511109598],[103.87364599667755,1.431167083577941],[103.87463255249907,1.431614020482175],[103.87603339418084,1.431941636534821],[103.87713026351089,1.431986300314474],[103.87855857378885,1.431755723014105],[103.88020383951078,1.43104941803951],[103.88517460041713,1.427582613985876],[103.8881237361673,1.425765272079086],[103.88654621306655,1.423594648873046],[103.88727416924026,1.423169791738512],[103.88867966961297,1.425436061366004],[103.88996508414377,1.4246912414272],[103.89001725945118,1.424782436143239],[103.89477708390837,1.421997282104116],[103.8950183055768,1.421853263905153],[103.89497005903169,1.421771491762454],[103.89686573686843,1.42061562844678],[103.89754969690377,1.419731625017245],[103.89777309455586,1.419097160860295],[103.89783430112143,1.418387328884805],[103.89748430454691,1.417111805616314],[103.89692360112801,1.415860723081933],[103.89648159604027,1.415299530732991],[103.89813062319838,1.414733466548149],[103.89895067469438,1.416438400672257],[103.89975783886487,1.417477063216547],[103.90178616885169,1.41903259903153],[103.90384510500682,1.420151722454026],[103.90537281877944,1.42037320785496],[103.90695621289498,1.420024942561592],[103.90793414405687,1.421028366109947],[103.91068662076476,1.421507457207895],[103.91257793232822,1.421106051743924],[103.91305264941649,1.419918404994011],[103.91391954262589,1.418509102258823],[103.91410751363208,1.416249694790331],[103.91503049644434,1.416378946356337],[103.91518100816359,1.416947457959202],[103.91555159596938,1.417293567078591],[103.91592421740353,1.417361127739679],[103.91630185147073,1.417234956427859],[103.91744431867778,1.415953941824145],[103.91868243036238,1.415022461258849],[103.91880501451374,1.414650985122475],[103.91861447942507,1.414141127727207],[103.91910933376788,1.413634235662751],[103.91953053722203,1.413349619669506],[103.92133592658567,1.412710805462955],[103.92350124032629,1.411204312992342],[103.92491868892768,1.409737321097418],[103.92587726805023,1.408506955250786],[103.9268648294422,1.407646320338781],[103.9277487888128,1.406650264561589],[103.92895313236485,1.405781392122788],[103.93087484923225,1.403872951291191],[103.93115847034919,1.403222239550956],[103.93100922060012,1.402359510929129],[103.93057458908855,1.401872938580426],[103.92981199345732,1.401600607010161],[103.92985086475277,1.401304932135153],[103.93012279907671,1.401292041814789],[103.93028911759575,1.400290673814905],[103.93003957712878,1.400264926127013],[103.93013739484232,1.399696115872681],[103.93407933260671,1.401148756754791],[103.93444084243293,1.401169789219252],[103.93477911792677,1.400988154975988],[103.93848275366594,1.397415560618466],[103.93868408896192,1.397044325187963],[103.93858575269114,1.396593958883215],[103.93661110540027,1.394753449352092],[103.93637804046293,1.394324288920894],[103.93615185430218,1.39339953471603],[103.9364440750706,1.392999627176052],[103.93756894066212,1.393247466784735],[103.93986833376722,1.395273895017684],[103.94025895363391,1.395408015850391],[103.94074320257762,1.395241874922283],[103.94290536848534,1.393095688160416],[103.94312942168106,1.392748349130835],[103.94323437563713,1.392246636483247],[103.94264675663874,1.3888896713732],[103.94262428813319,1.388291529781209],[103.94286850019132,1.38768322159192],[103.94375507188063,1.386702547335456],[103.94575573868899,1.385453521751641],[103.94924069142543,1.382989645543632],[103.950582239792,1.382766223459506],[103.95421793152599,1.381782109297587],[103.958110851841,1.381340233512493],[103.96135545710874,1.381546522058691],[103.9633128789718,1.381999875717669],[103.96475923895713,1.382090919124071],[103.9654351128137,1.381666672413434],[103.96622424511236,1.380610654646582],[103.96750640639232,1.381087167241658],[103.96760920406103,1.381905653957572],[103.96781427086026,1.382001485631488],[103.96736543227121,1.383221660594418],[103.96839110090247,1.383742529767726],[103.96925087532139,1.384388954215161],[103.97069672744033,1.386154636311139],[103.97154106068824,1.386727871588855],[103.97276683809552,1.387314775060009],[103.97328452483639,1.388845803796996],[103.97309683576646,1.388996093616996],[103.97365489285166,1.389663982791054],[103.97388002945134,1.39050673466418],[103.97421469769911,1.390827193132485],[103.97458139609363,1.390790489276523],[103.97466815018826,1.390673445220652],[103.97463625691874,1.391048922605102],[103.97490688780377,1.391058806326291],[103.97528482756346,1.391731518882243],[103.9761472112194,1.392086618220097],[103.97659743832074,1.392431260906262],[103.97773578794616,1.392450892526561],[103.97930165036043,1.392704991512097],[103.97931815079217,1.392542395390561],[103.97931966439556,1.392709568265602],[103.98058150296013,1.392705385289012],[103.9813980381951,1.39331261227612],[103.9814033368693,1.393496018174821],[103.98105475778387,1.393470470291814],[103.98268804202728,1.393780772299197],[103.98229499492123,1.393695796454623],[103.98235946175534,1.393557231580208],[103.98259947371157,1.393364558451058],[103.98316093974744,1.393232256173008],[103.98414578506595,1.393156618212962],[103.98438944979227,1.393320764818777],[103.98422173481941,1.393514609125514],[103.98803273716969,1.393132771673146],[103.99024521327819,1.392333241945634],[103.99190076847032,1.392039219607847],[103.99311373595924,1.39158044372157],[103.99463915526046,1.391530606658456],[103.99507091643657,1.391404842765259],[103.99607977725837,1.390648487048465],[103.99685274624963,1.390490608833469],[103.99748580731872,1.390166997133598],[103.99845718164974,1.389420560376838],[103.99853303157767,1.389167606353074],[103.99860211907077,1.389254437268785],[103.99890422943002,1.389137328452079],[103.99913163701244,1.388932662898774],[104.00046668977213,1.3867631173877],[104.0007961081441,1.385519055960032],[104.0010877453532,1.384907932736396],[104.00105401009388,1.384675471138272],[104.00193064169352,1.383377623582777],[104.0028591106592,1.381644783862176],[104.00376610803235,1.379597391809938],[104.00432635098238,1.377743567658489],[104.00546722803495,1.376234749127165],[104.00616436605625,1.374506881332992],[104.00687040235911,1.373821966964419],[104.00761046503587,1.373482019888701],[104.00784969273359,1.373634304692549],[104.0084273642199,1.373639290412427],[104.00842717808906,1.373551124368562],[104.00886200157954,1.373642495935251],[104.00885959196262,1.372760256764609],[104.00869627373929,1.372587065794229],[104.00682398687783,1.37251380534268],[104.00639380631758,1.37188192320994],[104.00607475942837,1.371106467535849],[104.00567332417829,1.369527097630772],[104.00628255665886,1.369203088154164],[104.00652968079086,1.369785995422772],[104.00893208296957,1.36878832485812],[104.0101115518323,1.368651163819902],[104.0114327030948,1.368945624527564],[104.01247952046626,1.369854415041525],[104.01290840177785,1.370051271819079],[104.01360516949288,1.370097727677227],[104.01982222039382,1.36748834989749],[104.02088356460861,1.366991149350207],[104.0211596886512,1.36660533604162],[104.02799748726808,1.363696212057634],[104.03211739287534,1.360986494548805],[104.03279203036408,1.360966063297263],[104.03490854747781,1.359562466180363],[104.03701478270405,1.358161780453654],[104.04134660098892,1.35483346978375],[104.04235440569728,1.353616749211475],[104.04284334955513,1.352816542257419],[104.04359043867012,1.350164179723983],[104.04356349321172,1.349353497187004],[104.0431979376482,1.348753093792748],[104.0425584173847,1.348568247703636],[104.04197872442239,1.348821220598158],[104.04180765799082,1.34914706393395],[104.04181901015446,1.34956685347282],[104.04252231816903,1.350506818071481],[104.04269272813156,1.351109792382054],[104.04259035083827,1.351989823333451],[104.0422529136978,1.352925575904641],[104.04119966945912,1.354315787019291],[104.03785685507864,1.356932803144107],[104.03668406447729,1.357049239332876],[104.03473130476848,1.358350323812614],[104.03440325481424,1.358199557615444],[104.03343895492496,1.358737271334451],[104.03262273912397,1.358747639874561],[104.03187117162736,1.35838980210525],[104.03127554856368,1.357578358232856],[104.03228180743095,1.356882120447502],[104.0324864350064,1.356533889156986],[104.03257060340479,1.355867097469722],[104.03159014144718,1.353796568147595],[104.02781578280249,1.34465761155458],[104.0256234198353,1.339679713023957],[104.02474617911375,1.337010936020269],[104.02276344544214,1.333085084070894],[104.02188571202376,1.330590015459149],[104.02115825657306,1.328959076670221],[104.02069271875159,1.327304604200208],[104.02075765038825,1.325664796073418],[104.02138848887553,1.324321656187673],[104.03254994993405,1.324595728339999],[104.03273515529162,1.317994112288176],[104.03355339572067,1.317434562649934],[104.03269497973736,1.31617652360555],[104.02906343819967,1.316081349796432],[104.02895238154596,1.320375654770547],[104.02266464223754,1.320209208890084],[104.02277675209275,1.315915454179834],[104.01489060285563,1.315708104799483],[104.01424762557241,1.315506116838485],[104.01376368371345,1.315590338988865],[104.01137824849424,1.315310087386558],[104.01092640564993,1.31504384897395],[104.01073961762339,1.31522093790212],[104.00817405014195,1.313750222109524],[104.00659114414621,1.31241930425398],[104.00512558467616,1.311448962819911],[104.0034717350926,1.310701596141964],[104.00216745280862,1.310413935453594],[104.00058806526502,1.310454079033581],[103.99923460780438,1.310796415047408],[103.99127367659754,1.314217688535701],[103.98391172454531,1.312024562835099],[103.9839375679984,1.312195973962353],[103.98490020495069,1.312616299774301],[103.98515273095259,1.313024131508137],[103.98520579583368,1.313401625942782],[103.98456293555692,1.316036623771408],[103.98419315712397,1.316663798418467],[103.98347179675662,1.316695778863318],[103.9828208720329,1.316310602694527],[103.98161739431306,1.316544099781886],[103.97930464307834,1.316585137779264],[103.97874462841288,1.316476219536313],[103.97862951681208,1.316344816194792],[103.97874286394746,1.316155346662728],[103.97669619110866,1.315431499824772],[103.97663700410315,1.316240315643118],[103.97580078086744,1.316202653774706],[103.97516511111807,1.315978965570629],[103.97472211474198,1.316208324400011],[103.97387791697875,1.315980120505386],[103.97245821447744,1.316072981806984],[103.97192990469046,1.315968819856256],[103.97111719848968,1.315526135622603],[103.97048844770349,1.31588890830352],[103.96944021137958,1.315557313879835],[103.96926770874404,1.315319508659291],[103.96882136945824,1.315086604664381],[103.96859030028074,1.315129099687692],[103.96850021360598,1.315361768947578],[103.96824240598933,1.315314769718467],[103.96648735045738,1.31453616346466],[103.96596458969762,1.314756480541728],[103.9646784088173,1.314113096086307],[103.96441688767587,1.31422142900303],[103.9641553472004,1.31413135022654],[103.96315731473558,1.314683091702776],[103.96283304754554,1.314506445075962],[103.96273977591225,1.314600136457794],[103.96152890268633,1.313949433677222],[103.96117023245567,1.313550007039517],[103.96120847898719,1.313723883219078],[103.96103454082166,1.313865294665148],[103.96043353850152,1.313693408009434],[103.95837569537923,1.312301306948835],[103.95827009010624,1.312339232180833],[103.95832796158437,1.31251305589244],[103.95779677897859,1.312511650944906],[103.95574590328054,1.311204018200595],[103.95582081082168,1.311392504488698],[103.95564896607452,1.311570801710279],[103.95504051267115,1.311617169294235],[103.95337752243933,1.310870170543353],[103.95336161281627,1.311041004525762],[103.95308774943018,1.31110294667367],[103.95120633847732,1.31050783104874],[103.95124553281966,1.310694179477882],[103.9505908568587,1.310808452233795],[103.9490272911388,1.310229212265293],[103.94904142480198,1.310355879385642],[103.9485727579793,1.310374249744129],[103.94436539361318,1.309085312164859],[103.94430220337058,1.309208914275208],[103.94407820508904,1.309197498518926],[103.943066728898,1.308509549065181],[103.94258710255507,1.30871131816206],[103.94182957110453,1.308477410602401],[103.94133757436843,1.308154126670094],[103.94122138521782,1.308450362173828],[103.94114272877387,1.308420251188619],[103.94126528356563,1.308110727604832],[103.93981450506887,1.30730034762884],[103.93977731088476,1.307391170792549],[103.93933332819968,1.307320123930396],[103.93884644445497,1.307033868393067],[103.93877288337264,1.307167469461782],[103.93856247480115,1.307111300204554],[103.93678265636514,1.306210405421866],[103.93673547863145,1.306440255824179],[103.93635685330032,1.306425963544027],[103.9350001011924,1.30564354139659],[103.9350596442494,1.305733826990112],[103.93488215447417,1.305799548868409],[103.9345996117194,1.305698099814885],[103.933555384657,1.304875393727903],[103.93362629277799,1.305087458668987],[103.93354156284454,1.305183451196056],[103.93309203836021,1.30538474067729],[103.93266991911744,1.30525722959326],[103.93243603295043,1.305528573222235],[103.9321908666514,1.305599566418365],[103.93150134539974,1.305049284841675],[103.93038817603428,1.30483843618043],[103.9295640796432,1.304296258718944],[103.92953077827727,1.304451888295512],[103.92937729353868,1.304482970837928],[103.92807887606004,1.303650400000165],[103.92788648203602,1.303764165358486],[103.92748443442326,1.303742985856108],[103.92700143273385,1.303415003982301],[103.92696000359119,1.303660240895581],[103.92666426978799,1.303656303492638],[103.92600551256722,1.303174252444933],[103.92582074034256,1.303570195990754],[103.92520098026422,1.303587504826647],[103.92458548356049,1.303349559434336],[103.92386729123136,1.302806016843767],[103.92372118992252,1.302814199378468],[103.92381382407349,1.303028669489102],[103.92368161662552,1.303204211248431],[103.92327251437871,1.303201779678053],[103.92146260141733,1.302382503200258],[103.92146731487837,1.302632369683486],[103.92109152958771,1.30257049546332],[103.9197706746089,1.301823198711462],[103.91925534469816,1.302003526674526],[103.91796579151854,1.301667165323235],[103.9176861684097,1.301840925647034],[103.91749494957854,1.301800715018554],[103.91618902359653,1.301222582459222],[103.915411538856,1.300687034712813],[103.91457319639005,1.300555935577498],[103.9132392397147,1.299776459239065],[103.9118894497523,1.299173582302425],[103.90813925497653,1.298210667607731],[103.90543934378297,1.297716655352801],[103.9012119278026,1.296180815402178],[103.90059312675756,1.295854811433991],[103.89879285296793,1.295439765654954],[103.89568614172009,1.294067954604138],[103.8955845282492,1.293809602841553],[103.8948523908828,1.293224809099968],[103.89413306661658,1.293641198595709],[103.89332821109888,1.293536717669146],[103.8907834975254,1.291272395880695],[103.8908055491723,1.291056387035761],[103.89009032678119,1.290385449812173],[103.88993750195964,1.290383719572224],[103.88977623304137,1.290644414364265],[103.88941544502154,1.290834306369739],[103.88868796921577,1.290808919717128],[103.88604882369523,1.288576063140225],[103.88607380281118,1.288342378450566],[103.88540322989422,1.287756820829976],[103.88468797624306,1.288102602929063],[103.88419437377208,1.288054878722305],[103.88385661832807,1.287853264644905],[103.88103445030968,1.28490388891943],[103.88106446830822,1.28468837284585],[103.88027438492546,1.283875668561964],[103.88009841650558,1.28385750402626],[103.87902935622749,1.282890873445411],[103.8759443288579,1.280786252453222],[103.87697461667014,1.280725033031888],[103.87741399324779,1.281016530233848],[103.8775980843868,1.280833503527667],[103.87748602968185,1.280581156077027],[103.87702148351448,1.280459766694487],[103.87612493478511,1.280556577873528],[103.87530727143535,1.280936424650582],[103.87375042475796,1.282194540521077],[103.87385669169564,1.281990058353754],[103.8736836904285,1.282145310679006],[103.871443348875,1.280493248109742],[103.87155583313105,1.279999866622367],[103.87184420440224,1.280176691813968],[103.87156858931016,1.279975425973823],[103.87210951931996,1.278504284056408],[103.87201347927146,1.27761058231837],[103.87159000437596,1.276772305869525],[103.87105622099173,1.276245901159727],[103.86306531368726,1.270367963236026],[103.86322393568815,1.270142522218883],[103.85997058242631,1.267785084859746],[103.86172527613147,1.26533836013883],[103.86085371592971,1.26469941314709],[103.85909618070151,1.267151477598274],[103.8571922733162,1.265837278212486],[103.85659781662585,1.265655338981262],[103.85586341313112,1.265636956148584],[103.85526151772432,1.265788408108131],[103.85467929342015,1.266109496026537],[103.85261319144328,1.268105902542384],[103.85156581997524,1.268105448048999],[103.85157062278752,1.264140649466468],[103.85165857114688,1.264140874934623],[103.85165519067858,1.263857474094969],[103.85174701260098,1.263857636227187],[103.85174349145078,1.264140955722977],[103.85184347078041,1.264087606515796],[103.85179705793573,1.2635716213907],[103.8512183041086,1.263541492022927],[103.85066856977983,1.263042856031127],[103.85206964851125,1.261458154550041],[103.85125973416795,1.26073245257031],[103.84570064866523,1.266837084778484],[103.8442833514182,1.265540819585711],[103.8467338316583,1.262427938347599],[103.84594348772217,1.261543003036882],[103.83945091921527,1.267619627141766],[103.83208107395701,1.267414261853566],[103.82464004985596,1.263157582112707],[103.82411838839663,1.263084566391367],[103.82411220745739,1.261280850955646],[103.82440711369728,1.26019361616417],[103.8304213697404,1.263628070226219],[103.83608695869063,1.26385022586796],[103.84247731285578,1.257862366611385],[103.83635555016409,1.254808398778382],[103.83126396873429,1.256419860780553],[103.83172885447135,1.256645252408313],[103.83153373768039,1.256813778909569],[103.83183349619827,1.256946212517713],[103.83189865388492,1.257162688621281],[103.83134320580024,1.257329777847054],[103.83124809120925,1.25705326814153],[103.8312311913994,1.257373417896793],[103.8311306398194,1.257089257253862],[103.83118684801981,1.257393131211009],[103.83106314463566,1.25743503576713],[103.83088804312987,1.256932097372834],[103.83060299785072,1.257030153779576],[103.83050471154242,1.256749143017842],[103.82932497036948,1.256792446082766],[103.82874672463618,1.256994080560313],[103.82869889653932,1.257130396331747],[103.8284364026168,1.256665707736856],[103.82783163033187,1.256919442433961],[103.82819222407379,1.256836738984608],[103.82824415258885,1.256955302256461],[103.82855209707233,1.25680893587175],[103.82868250371993,1.257150813248979],[103.82800041088355,1.257474772698707],[103.82681144467468,1.257663833835945],[103.82618291479596,1.257941645901296],[103.82501921000856,1.258832192437737],[103.82439336724285,1.259615488985436],[103.82421292519383,1.260121505938094],[103.8240232298704,1.26015777301531],[103.82400165851641,1.256707328029175],[103.82411433256598,1.256652965237093],[103.82400883814259,1.256349038499162],[103.82428089716701,1.256242886895233],[103.82441850797088,1.255957885753073],[103.82522423964308,1.255269521848697],[103.82723661646563,1.254631725660081],[103.82951769399958,1.254500306764668],[103.8308422255291,1.254777277424671],[103.83275735722573,1.254565691481554],[103.83410561711695,1.25355861393855],[103.8349610676541,1.253264117891392],[103.83656020262393,1.253201301911078],[103.83696918248485,1.253285759127139],[103.83715262238864,1.253188521525533],[103.83835302705417,1.254075664597685],[103.83920465092038,1.253994141533838],[103.84037724980709,1.2535195902077],[103.84159358434698,1.253680236242261],[103.84189535912661,1.253203047914756],[103.84182531073976,1.252370958070306],[103.84227356534245,1.252197662124308],[103.84469338511293,1.252636577263136],[103.84520112751466,1.253055440745794],[103.84609323261307,1.253237548528207],[103.84646267157886,1.25321384328133],[103.84842349761199,1.252114160858216],[103.84806212011173,1.250794441001071],[103.84583822935441,1.247372063613671],[103.84494566408488,1.246294579044363],[103.84420291905587,1.245041784157618],[103.84211439637697,1.242968419042457],[103.84158675327895,1.242293482156281],[103.8409572452955,1.24183024107214],[103.83973362173582,1.240432385119705],[103.83731810702378,1.238768059435373],[103.83640527934524,1.238593717129135],[103.83687261093809,1.238872621875465],[103.83710278445778,1.2391884448856],[103.83712870001499,1.239418515362106],[103.8367180098108,1.239419356981997],[103.8365422411209,1.239166107807478],[103.8362210006847,1.239044317314066],[103.83488617140652,1.238978308821646],[103.83386286925968,1.238083737363217],[103.8331088102677,1.237805050023761],[103.83245878235338,1.237910950153296],[103.83157298149423,1.238462992337913],[103.83029429898731,1.239700624032751],[103.82997482054895,1.239760647268668],[103.82980178205071,1.239615142816742],[103.8297880708372,1.240091245870207],[103.83035645949244,1.239966471305098],[103.83044895329122,1.240234977442662],[103.83031958953322,1.240684643963466],[103.8299257574505,1.241229893410569],[103.82911745509286,1.241428439290025],[103.82893353496945,1.242086328503769],[103.82850512807389,1.242615523381262],[103.82789244839802,1.242869452557158],[103.82736407980892,1.242778960626693],[103.827086931359,1.242456468777299],[103.82736892368582,1.242410712171309],[103.8275081955895,1.242176518070842],[103.82715304161285,1.241910534408562],[103.82565723222744,1.243739798085466],[103.82367835680805,1.245852498936153],[103.82349992121567,1.245841268769746],[103.82355662093215,1.246081136469214],[103.82330105408748,1.246529036820996],[103.82336376922518,1.246585937003794],[103.82381116400512,1.24620719505975],[103.82407575187186,1.246807000832151],[103.82402255206284,1.247274922796559],[103.82374688819475,1.247621738604642],[103.82328867068097,1.24792845956218],[103.82251488825563,1.248089702972121],[103.82231934692517,1.248374822260825],[103.82197476820158,1.248553183297577],[103.82171879325898,1.249127907125946],[103.82102428900427,1.249730562020402],[103.8200303573208,1.24960353453899],[103.81998613686385,1.249489627715918],[103.82048402048075,1.249190601881437],[103.82004978538248,1.24904696120254],[103.8198745540612,1.248796180757002],[103.81977016217438,1.248989615780655],[103.8187944645501,1.24937088001836],[103.81784764087298,1.250051821720504],[103.81768948405549,1.250013861859879],[103.8171602394996,1.250469108798576],[103.81726388981134,1.250659836424602],[103.8170652612394,1.250951943316031],[103.8163454544421,1.251454631879361],[103.81617935350079,1.251305410549158],[103.81604452011653,1.251345174592053],[103.81605134800374,1.251486707776139],[103.81628736360376,1.251608672008352],[103.81583541356551,1.252323329063017],[103.81546076623053,1.252532244804036],[103.81485423124195,1.252589400966342],[103.81465581398787,1.253180791012167],[103.81438261375129,1.253539948586225],[103.81399644969318,1.253747757083495],[103.81344684770734,1.253828578760381],[103.81329932324034,1.254353055108021],[103.81305978446932,1.254689889447004],[103.8126814063047,1.254960183098766],[103.81197652939957,1.255124142404918],[103.81166510375965,1.25565244276003],[103.81104737136879,1.256138398091326],[103.8105089508819,1.256336964846486],[103.80998170394258,1.256185895022243],[103.81002134083204,1.2558762407893],[103.81037648860953,1.255423392200897],[103.8106281958086,1.255174929159606],[103.81080092788453,1.255316328138377],[103.81092718085172,1.255246023891179],[103.81047911510663,1.254795772806241],[103.81050263648342,1.255040132449186],[103.809099596942,1.256448044274642],[103.8087768254118,1.257395061546176],[103.80744569174294,1.258665816189043],[103.80714691571039,1.258781079028324],[103.80671073920455,1.259412144094142],[103.80672653384963,1.25982840085246],[103.80740024720613,1.259984766969228],[103.80819584459667,1.259765097323458],[103.80876445563823,1.260052245904621],[103.80919337773705,1.259832436790376],[103.81249403251364,1.25902554757116],[103.81404192749429,1.259061645533214],[103.81473572425726,1.258827576514942],[103.81540084081699,1.25936572181614],[103.81623977837629,1.259781256097438],[103.81702335893692,1.259998200240023],[103.8175853565424,1.259902490244444],[103.81788984104962,1.260021520085078],[103.81878201049292,1.259701967860577],[103.81919523777361,1.259353626815334],[103.81955861003316,1.259335153499398],[103.81973875788417,1.258890773875342],[103.81990476287763,1.258958767619946],[103.81977888161761,1.259268608766846],[103.81994712671502,1.258976119891718],[103.82011273097511,1.259044026801948],[103.82011847443252,1.259212750604499],[103.82062629819436,1.258797776189096],[103.82096396412544,1.25786373781531],[103.82118958023192,1.257749182052509],[103.82137321066014,1.258037082103142],[103.82118891025611,1.258261310428363],[103.82128960260805,1.258385000909782],[103.82301692003638,1.257615740044248],[103.82315842889282,1.257789849874251],[103.82312876994528,1.258318995577735],[103.82334445135066,1.259279055013046],[103.82315842025044,1.260019315085423],[103.82340375808991,1.260910993769583],[103.82340375279601,1.26230739401632],[103.82325054746627,1.263073196184548],[103.81990718751075,1.263090051896837],[103.81986318329177,1.261946662039145],[103.81806074294923,1.261958415093779],[103.81806020435916,1.262175800932532],[103.81962615846203,1.262165155388076],[103.81971675339338,1.262939916355234],[103.81956985081335,1.263238582130414],[103.81576085929693,1.263839057390661],[103.81505249911761,1.264409173217064],[103.81311289041646,1.263530264277765],[103.81341130438486,1.262976050016055],[103.8115452980223,1.262723156406893],[103.8113093088071,1.262578365569137],[103.81119686341682,1.26294568149603],[103.81071690368042,1.262930167478125],[103.81040509358729,1.263102455303555],[103.8102765355153,1.263679502327257],[103.8104281162522,1.263868868661402],[103.81107506686996,1.264063656453428],[103.81131884272837,1.264653910441607],[103.81156715950321,1.264858054857599],[103.81191823347292,1.26494645947444],[103.81215347006436,1.264857209636455],[103.81246591273893,1.264245499701726],[103.81293618527265,1.26442496565255],[103.8127681790004,1.264254120727111],[103.81311420784276,1.263739657343636],[103.81302100725243,1.263665911976437],[103.8149386543191,1.264511943542948],[103.81284320577251,1.266403532832058],[103.81153976801558,1.266438961483566],[103.81119056422362,1.26639560234397],[103.81018687731388,1.264993335838963],[103.8098853356678,1.265232664261313],[103.80970645951076,1.265016211915617],[103.80949808654601,1.265172511395956],[103.80859488396787,1.264995183144629],[103.80758270901161,1.265482536415323],[103.80721789258374,1.265881555744601],[103.80627931114192,1.265005922737053],[103.80652612427446,1.264687316637624],[103.80552684732498,1.263756253298988],[103.8056821776254,1.263659211181931],[103.80563573960353,1.263581797043965],[103.80538084498887,1.263740078059174],[103.80540878598308,1.262708038779236],[103.80514180780642,1.262298863188944],[103.80412534918945,1.263099242010589],[103.80242543128482,1.264807856966771],[103.8010008043366,1.265889241068316],[103.80129864314563,1.266451373592701],[103.80017621182084,1.267218987920331],[103.7992100868428,1.268201638266674],[103.7983137351459,1.266632612867404],[103.79399378863198,1.269209472928768],[103.79372513743157,1.268756868583039],[103.79391058393415,1.268645360539214],[103.79381849465764,1.268490040800079],[103.79358701675297,1.268629072469386],[103.78551368947724,1.255012448433013],[103.77856940099619,1.259183348963263],[103.78663266419262,1.272790725289708],[103.77687184508164,1.27866985602863],[103.77067283376246,1.268240732417124],[103.75024302212177,1.280494919199051],[103.7530115630177,1.285269561726876],[103.75649395024546,1.285852333244574],[103.76912961419673,1.278308716678532],[103.77228709920115,1.283645941503998],[103.76073046451667,1.290598280773327],[103.76199330105551,1.292850916019562],[103.76305599904839,1.294458776003396],[103.76262396628141,1.295079108887249],[103.76231153056165,1.294945776926498],[103.7621088818679,1.29512091217199],[103.76215775620248,1.295349683313991],[103.7618522384529,1.295758015863823],[103.75994689704976,1.297608534128225],[103.75936284539819,1.298513007679733],[103.75857077695512,1.29928931021643],[103.75589603325355,1.297378208561776],[103.75536124969189,1.297122756236505],[103.7544824323423,1.297120044682299],[103.7541223556551,1.29723247022354],[103.75358506720005,1.296947855334403],[103.75193512456164,1.296671753533573],[103.75141419057515,1.296787724911016],[103.7511128815345,1.296668084920559],[103.74908269135538,1.296502715410751],[103.74846742892511,1.296788350709103],[103.74740660987185,1.296848536280688],[103.74694808586533,1.29712152901168],[103.74678746260845,1.297060268216623],[103.74616794645515,1.297230978943801],[103.74600954238356,1.297281304908861],[103.74603379445495,1.297374623430575],[103.744152394983,1.298054672378462],[103.74384240154843,1.298478166742309],[103.74389209633527,1.299093099655815],[103.74483041187163,1.300882439128539],[103.74370283656883,1.300990831378119],[103.74343084807113,1.301322216665338],[103.74085592871586,1.29881384608064],[103.73979501580352,1.299034320481199],[103.7398301502388,1.299192169412126],[103.73944975386729,1.299331970731873],[103.73791099931124,1.299465917688938],[103.73708940367885,1.299791583801754],[103.73661127914437,1.299803891894604],[103.73492718123873,1.300332607737924],[103.7342522035733,1.300346879154954],[103.73261418753091,1.300855997643563],[103.73209105992105,1.300874440963909],[103.73064264801202,1.30124208805758],[103.72965423464608,1.301630932636661],[103.72760803501065,1.300271205736095],[103.72251398698506,1.302763890775723],[103.71584766686505,1.308417173232416],[103.71219993009205,1.308439453086046],[103.71222289926529,1.307209724391914],[103.71263034126785,1.306473251922257],[103.71452754713629,1.306297281569019],[103.71529157560983,1.305818277716454],[103.71535832477397,1.305898831562859],[103.72091703378588,1.301184028492127],[103.72067371208078,1.300892957369311],[103.72086265419105,1.300569149619307],[103.72039900335832,1.299814428788976],[103.72272663536005,1.299674522577769],[103.7227254079925,1.299570272066092],[103.72196274670684,1.299577344827609],[103.72196165661501,1.29947840112688],[103.71187750931502,1.299610160341821],[103.71181277537094,1.293074716249347],[103.71191123590566,1.292539654732802],[103.71231443515526,1.291838657252228],[103.71258057294847,1.291589253956558],[103.7174154585128,1.290672104614466],[103.71759235058266,1.2908483721685],[103.71785040629992,1.291913830323791],[103.71815755435267,1.291993407499026],[103.71965812762565,1.291608352493688],[103.7197923929548,1.29146551257672],[103.71887315268101,1.289986932451115],[103.7201991900995,1.291137528285255],[103.7210005315243,1.291343044386665],[103.72174507144578,1.291125635026562],[103.7245161329496,1.289595650183246],[103.72532478445876,1.288489232562191],[103.7258985717175,1.287228211900388],[103.72625088252255,1.285892564500047],[103.72645609030094,1.284173657917177],[103.72843045241589,1.282071421795992],[103.72918981540396,1.280954084840642],[103.72957480519914,1.280663545763441],[103.72985817470845,1.280938086766425],[103.73014707216942,1.280716149607624],[103.73036339505131,1.28093749227831],[103.73053952471278,1.280773068027004],[103.73031894203861,1.280547367071058],[103.73052013181618,1.28036153664395],[103.73071357856536,1.280567647976833],[103.73089137800868,1.280394452342632],[103.73069022264508,1.28018998574955],[103.73085697960252,1.280025443524704],[103.73066967838733,1.279831413843582],[103.7308750495102,1.279337585378165],[103.7312414153307,1.279650428454146],[103.73138369505855,1.27951193992087],[103.73158948739409,1.279726191858783],[103.73185260691096,1.279470086598655],[103.7316475423872,1.279255780448644],[103.73184213688988,1.279065455854092],[103.7316920605264,1.278909212035167],[103.73195003998282,1.278661643742779],[103.73377852949189,1.278547431329242],[103.73541247496001,1.278246766527893],[103.73585742868116,1.278044069548156],[103.74004351966417,1.273799487022135],[103.74018364784374,1.273501847913233],[103.7401253024206,1.273101039898606],[103.73971621352838,1.272468577164437],[103.73855475998919,1.2714641119212],[103.737152098984,1.270623589288248],[103.73476286412682,1.270109684444057],[103.73285456650477,1.269225007218068],[103.73161383537996,1.270400324489721],[103.73112688877497,1.270285847995225],[103.72969600147265,1.270515942117459],[103.72616533949679,1.271667347525091],[103.72355738025954,1.269260139450856],[103.72419139066541,1.269057839568206],[103.72625019821272,1.270961887010526],[103.72695335575159,1.270929543658723],[103.72933138888763,1.270143440841749],[103.73048702716056,1.269943926903153],[103.73125537787185,1.269948742541202],[103.73291570822357,1.268335550797127],[103.73310646288245,1.267943938939216],[103.73311717528136,1.26752080388767],[103.73114207130702,1.263313135671496],[103.7293142783997,1.261907213237767],[103.72249676312896,1.258961973649516],[103.71775239544601,1.262973784799483],[103.71080025501786,1.266739872930353],[103.71068607678082,1.266989625411665],[103.71070256093229,1.268218547826032],[103.71018943575898,1.269276366569975],[103.70896479262248,1.267100918744264],[103.70873897819014,1.266950750124354],[103.70828298121026,1.267090567838595],[103.70612263551521,1.268352972342097],[103.70573126784784,1.267757487946086],[103.7048097111285,1.265594283248593],[103.70963310500646,1.262831759220127],[103.71046072360673,1.262129611514966],[103.71382999748099,1.260217017132377],[103.71418952399868,1.259667090493479],[103.71407941189135,1.259016251461626],[103.71373387073132,1.258686106823006],[103.70612957784896,1.25452507051187],[103.69640685719311,1.250926148875732],[103.69412390480585,1.250257129862774],[103.69040995784059,1.263393793172345],[103.68497029121158,1.268399611987646],[103.68012798240758,1.263060553923043],[103.68591289597298,1.257732949096479],[103.69038277783572,1.241995884966919],[103.69051404752314,1.240922432040969],[103.6903905946809,1.240026437335981],[103.68976914713257,1.238733111037185],[103.68784028016482,1.236693707957084],[103.68697139120555,1.237581200117539],[103.68259193649756,1.232885945637692],[103.68302781914683,1.231868894018504],[103.67441183361753,1.223154697568489],[103.67387184054682,1.222771260236555],[103.67339551879367,1.222620709742834],[103.67290193885174,1.222599291951476],[103.67226618341695,1.222772311405529],[103.67184830663646,1.223041976756641],[103.67142821989951,1.223543645943933],[103.66980026246016,1.226964294403645],[103.66963266516822,1.227817314122019],[103.66965784246345,1.228379196436002],[103.66982162024223,1.228442484707124],[103.66996602767802,1.228330334669486],[103.67014912013742,1.227101724545569],[103.6717625459639,1.223734756954208],[103.67215912299885,1.223579973226059],[103.67241311867657,1.223703950339681],[103.67601641300855,1.227357325361033],[103.67629201956653,1.228034009646216],[103.67621903338559,1.228705001151409],[103.67454487344678,1.232257609081313],[103.67385286448247,1.232739192565043],[103.67291245105724,1.234492552882381],[103.67265214844909,1.234595460660226],[103.66942775730001,1.234604454524694],[103.66880350386775,1.23485830526935],[103.6650477589975,1.242639291040597],[103.66301720372789,1.244975242569036],[103.65372512550711,1.268014405855262],[103.6537263598174,1.272910723353174],[103.65876139864146,1.276851771769796],[103.6608031250752,1.273999805944894],[103.67680184339756,1.285212177086178],[103.6835649098047,1.289264957998561],[103.68563141610348,1.290081550025442],[103.68864568207168,1.290818380491345],[103.6927538561912,1.290687559444456],[103.69634775682371,1.291217588285735],[103.69676202976873,1.291057018583349],[103.69690826680564,1.290589322864377],[103.69164096065417,1.284800358611466],[103.69101520603303,1.282558463289327],[103.6872290070836,1.278860544873722],[103.68422589097091,1.276531846336536],[103.68805919952734,1.272751552478162],[103.69209143767725,1.27707023859191],[103.69225623415547,1.277088405483862],[103.69336796147508,1.275998616074698],[103.69481840191585,1.27690540873207],[103.69572305682014,1.276943147829947],[103.69566648078036,1.27712564781503],[103.69546743271968,1.277129978922104],[103.6953788170325,1.277626642692632],[103.6958957873147,1.27765634812898],[103.69600245028305,1.277238422704255],[103.69651398320683,1.277562028303],[103.69659566402564,1.277485873610199],[103.69558234443652,1.279154519573574],[103.69598128329685,1.279812315471939],[103.6963321418878,1.280906744827218],[103.69572125345057,1.281396249540258],[103.69630365354641,1.282179801489952],[103.69797341207732,1.283553038553853],[103.70402597272131,1.290894082858876],[103.70530365330235,1.291027731317343],[103.70560495454346,1.291328854096658],[103.70565995274623,1.29155525410744],[103.70547962487703,1.291895204833528],[103.70579809963684,1.291969948422155],[103.70641195676583,1.29246295646713],[103.70799993070757,1.292443041271343],[103.70837193995649,1.29251390658676],[103.70849521410712,1.292719933744868],[103.71063237579071,1.291865647270301],[103.71184791893852,1.291602785166589],[103.71144724358646,1.2922854449227],[103.71128862926238,1.293159618750734],[103.7114296004746,1.306965248284534],[103.71122927659883,1.307753869883742],[103.71081166984531,1.308411537205942],[103.70981688697394,1.307952046580728],[103.7098288528935,1.307750134650031],[103.70847454527372,1.307711029509782],[103.70838926699255,1.307620447900629],[103.708468991891,1.305389001396328],[103.7082747248194,1.305368678793168],[103.70782380660654,1.304855128362534],[103.7073425892635,1.30290333597554],[103.70774581900854,1.302919471976536],[103.70777999710376,1.302062463515427],[103.70240932448925,1.301837273666383],[103.70230943820914,1.304005766703819],[103.70165938752982,1.304314669991658],[103.70137152293412,1.304138383742528],[103.69998403531034,1.3048196060738],[103.70000191997568,1.304921238359205],[103.69932152808244,1.305018846875425],[103.69895216653248,1.305299758138782],[103.69894398413268,1.305575334967159],[103.69806908174635,1.306406421057094],[103.69729101376821,1.307543927147306]],[[103.86975881061525,1.424551923316178],[103.87103331088194,1.424106200619724],[103.87118566110354,1.424298646695985],[103.87162319571485,1.424281394790784],[103.8718494915726,1.424627487351621],[103.86985806329842,1.425902801408301],[103.86935838970439,1.426473603888598],[103.8673615079781,1.424716900759366],[103.86975881061525,1.424551923316178]],[[103.85732879884237,1.425528086639269],[103.85766604820932,1.425348064946837],[103.8580633403844,1.425410291768415],[103.85828040482667,1.425141609266315],[103.85991169869794,1.424534101730567],[103.86019822578515,1.424271054237898],[103.86166063316769,1.423538910746299],[103.86239101656464,1.423533439244295],[103.86251078842133,1.423216309910418],[103.86305192715018,1.422961276901446],[103.86320171659699,1.422946964302768],[103.8631529554268,1.423292113554945],[103.86344701737184,1.423429650775244],[103.8576150660506,1.426236412074454],[103.85732879884237,1.425528086639269]],[[103.82351705878082,1.26081079055261],[103.82366878315402,1.260765909294273],[103.82353366195628,1.261020841158933],[103.82364186630885,1.263069856958225],[103.82351705878082,1.26081079055261]],[[103.82351542968182,1.256502436896793],[103.82362712248076,1.256463549617627],[103.82359361411906,1.256567735064398],[103.82351542968182,1.256502436896793]],[[103.7236024538657,1.268842825618932],[103.72399224944942,1.268873408804911],[103.72335666122747,1.269076367854679],[103.72316045447943,1.268896723952731],[103.7236024538657,1.268842825618932]],[[103.87366490845825,1.42327402186729],[103.87295905323366,1.423848416110529],[103.87275304125434,1.423533352479883],[103.87293989308333,1.423114000352248],[103.873163599597,1.423033516928217],[103.87328339519377,1.422773781601578],[103.87428246339284,1.422127740847461],[103.87481641721276,1.420766546392176],[103.87492385121496,1.419786105719253],[103.87551591892579,1.4189404515994],[103.87555558420173,1.41858090300978],[103.87584536939974,1.418545871666265],[103.8761102940351,1.418206242024867],[103.8771361227849,1.417797664683143],[103.87803307327985,1.41919713478404],[103.87689688958811,1.420030373046395],[103.87366490845825,1.42327402186729]],[[103.88376882598342,1.418103911854644],[103.88696445057134,1.422712425315916],[103.88624856426897,1.423134105042966],[103.88276941720996,1.417777141770598],[103.8798066603767,1.41840548301068],[103.87833515483189,1.419024457612075],[103.87734769598245,1.417483771396731],[103.87782716922308,1.417252589645788],[103.87818500916073,1.417751113157993],[103.8782964882522,1.41767005015628],[103.8779554576595,1.417190734115124],[103.87823024370644,1.416891144749326],[103.87860002077063,1.417402845447248],[103.87885176560988,1.41721819475015],[103.87845010389897,1.416658443164138],[103.87894876178241,1.416247444379562],[103.880526655128,1.415377939315213],[103.88134299996902,1.416506016582058],[103.88223674426226,1.416846860555125],[103.8829085640382,1.416910713248329],[103.88462919503526,1.416774586926793],[103.8857455271677,1.416350659461295],[103.88769946698287,1.415027457982965],[103.89070034244196,1.414258450207903],[103.89087790491678,1.413964129731561],[103.89124622083969,1.414094999998702],[103.89252862921347,1.413912751776203],[103.89289484024637,1.415126307441201],[103.88850634223567,1.41570260948309],[103.88622072527474,1.417016450079555],[103.8845525891003,1.417532335866754],[103.88357350743848,1.417622659056311],[103.88352148146792,1.417728642558305],[103.88376882598342,1.418103911854644]],[[103.89500517193376,1.414832211976915],[103.89324510910247,1.415085781299626],[103.89286558803298,1.413828119330584],[103.8936209281688,1.413879872490535],[103.89366053947279,1.413594092606481],[103.89442421699609,1.41309268438414],[103.89485567978548,1.412353581910381],[103.89478025528979,1.411399543793493],[103.89457581650277,1.410995389193921],[103.89226005927293,1.40841649226344],[103.89350838476308,1.407455257429522],[103.89513725517952,1.409259524806943],[103.89586417580861,1.409375693603768],[103.89582190694877,1.409540265152175],[103.89596795037595,1.409717899209986],[103.89582787052284,1.410033266511109],[103.89653515410839,1.411153834063866],[103.89751410053331,1.413342258651585],[103.8977662928002,1.413382628510833],[103.8980232676915,1.413865511118372],[103.89818253783709,1.413929018051706],[103.89885409532022,1.413616787299783],[103.89905932126399,1.413634743250386],[103.89821753639538,1.414032863756269],[103.89801809379226,1.4139849722382],[103.89757944587564,1.413404916780908],[103.89792117723616,1.414165281947963],[103.89693375183856,1.414617095642758],[103.89684022493024,1.414411394437955],[103.89583411539522,1.414924280076211],[103.89500517193376,1.414832211976915]],[[103.89265389396714,1.407614791997036],[103.89199898520147,1.408191264444277],[103.88993597222655,1.406522813846561],[103.88782599634673,1.405416113252522],[103.88690957794188,1.404511838793379],[103.88624348440273,1.403193650005767],[103.88596530786495,1.401640994607213],[103.88765044164022,1.401509617419168],[103.88778663662212,1.402776479365299],[103.8881268683935,1.403421439086921],[103.88896572995856,1.40420519220379],[103.89056284895794,1.404916665062178],[103.89206018213098,1.405917096115138],[103.8932689092123,1.407192251214763],[103.89265389396714,1.407614791997036]],[[103.88730469541575,1.400891627661799],[103.88592663477064,1.400999833749437],[103.88579632335492,1.400111179102421],[103.88505857934936,1.397868373637873],[103.8864501092023,1.397695796119716],[103.8873513310463,1.40007357359004],[103.88749006340873,1.400873415804845],[103.88730469541575,1.400891627661799]],[[103.88633384715575,1.397410196188909],[103.88497182249931,1.397589713066616],[103.88443585609812,1.39580058955809],[103.88375145700637,1.395280125003955],[103.88532434437678,1.39500324040349],[103.88633384715575,1.397410196188909]],[[103.88236041643879,1.393899030141779],[103.88236798344248,1.393337537647849],[103.88362976084862,1.393853708147288],[103.88499796485037,1.394706029402918],[103.88319775138906,1.39502507555333],[103.88235035389538,1.394494963570698],[103.88236041643879,1.393899030141779]],[[103.88200531235734,1.393636091072942],[103.88198351374719,1.394326495945089],[103.8812930751375,1.393761833141134],[103.88088012738775,1.392892338283068],[103.88088952254732,1.39220088413956],[103.88181229344494,1.392070046293892],[103.88199083558399,1.392157930475205],[103.88200531235734,1.393636091072942]],[[103.8810921384316,1.388306534783102],[103.88129814644684,1.388453076414522],[103.88180041536526,1.389614651791711],[103.88202491032624,1.391137933116305],[103.88182178546472,1.391690565101874],[103.88096350287489,1.391905538219108],[103.8812427362495,1.390844272454995],[103.88123445973352,1.390056009229472],[103.88106296364418,1.389526287042724],[103.88041394173244,1.388500083235662],[103.8810921384316,1.388306534783102]],[[103.87971151928228,1.385555481249686],[103.88040303936006,1.38652566093238],[103.88085466144415,1.387532988372925],[103.88071765845675,1.387999825560851],[103.88027677695213,1.388174232836164],[103.88042770696639,1.387701806423787],[103.88020289451782,1.386457269698361],[103.87982832274264,1.385983933988693],[103.87834596203109,1.385156533154293],[103.87738801693881,1.383676758694633],[103.87753112522496,1.383401025407259],[103.87849560580385,1.384842557756148],[103.87971151928228,1.385555481249686]],[[103.87720031573157,1.382963835839549],[103.8774755982136,1.383327671681548],[103.87733851450479,1.383437161965455],[103.87720031573157,1.382963835839549]],[[103.92363881384996,1.404523915466706],[103.92307085060978,1.405074190758499],[103.92190773730256,1.406607805460935],[103.9212991129301,1.406978088375579],[103.91977088880905,1.407568330410486],[103.91892023802458,1.408255290778209],[103.91814847924667,1.409090435986635],[103.91727722845908,1.410303041276136],[103.91655787548682,1.41166909041606],[103.91637022291614,1.412248242193489],[103.91617053289755,1.413926788473259],[103.91527817801915,1.415469799518595],[103.91505720948278,1.416092239727061],[103.91416051623945,1.415967935238975],[103.9147623805676,1.41275856728688],[103.91713324843244,1.408485996944678],[103.91608791810133,1.407042113567437],[103.91615706879121,1.406984058225139],[103.91719191101899,1.408413454507306],[103.9212786694938,1.404720914108169],[103.92046800757419,1.403601173738964],[103.92059392887727,1.403506355600389],[103.92140242602159,1.404623105730858],[103.92295237960482,1.403792224962142],[103.92363881384996,1.404523915466706]],[[103.92962973308161,1.40158271608874],[103.9291786575828,1.401672632210772],[103.92875432331641,1.401983202400084],[103.92823117115438,1.403233267503303],[103.9277937034909,1.40358315434534],[103.9252799055212,1.40374825706146],[103.92386166378944,1.404359152899834],[103.9232164801697,1.403647977469514],[103.92446964015592,1.402899666957417],[103.92466520566231,1.40243576137092],[103.92457900563535,1.401257694854366],[103.92552889016692,1.400697665313947],[103.92576759960929,1.400356191946177],[103.92576980019831,1.399953829738882],[103.9255619866366,1.399580997419434],[103.92376171969993,1.398561853197985],[103.92503469700772,1.397602812550952],[103.9286780780659,1.399165983389697],[103.92984003794882,1.399310407761426],[103.92946078645254,1.401265288350627],[103.92967139317786,1.401265828592934],[103.92962973308161,1.40158271608874]],[[103.92184730598628,1.397161531624474],[103.92162062333391,1.396974810726339],[103.92253926457452,1.395832406199696],[103.9246496267141,1.397389415181405],[103.92334257668408,1.398299141121852],[103.92184730598628,1.397161531624474]],[[103.91934293562878,1.393752747566727],[103.91989997192236,1.394317288560628],[103.91934293607805,1.393752746888443],[103.91975968183294,1.393461787988917],[103.9225130252586,1.395810963624241],[103.92159303339379,1.396951932741939],[103.9199882023948,1.395611457765707],[103.91885748866241,1.394091672710405],[103.91934293562878,1.393752747566727]],[[103.87226675587013,1.283649610519056],[103.87022611164801,1.286046164070124],[103.86890079344624,1.288081003621191],[103.86751707715385,1.29080316047405],[103.86654391415904,1.293555910395723],[103.86454373802974,1.29329126547157],[103.86501954378942,1.289852739151273],[103.86498443471056,1.289313220910101],[103.86471485924683,1.288827932198267],[103.86428582318356,1.288544013072372],[103.86377069223053,1.288453290732948],[103.86182809840487,1.288555100502276],[103.86174867655086,1.286054559226132],[103.86477851173306,1.285073538885994],[103.86667512044579,1.284174702722884],[103.86876190571195,1.282843178257615],[103.87036539556098,1.281510794630701],[103.87042440064381,1.281688960860961],[103.87055534677577,1.281649887679255],[103.87051209173588,1.281753650600159],[103.8714199646176,1.280582440301573],[103.87163471148605,1.280740857591831],[103.8715907140271,1.280825420877856],[103.87166439479134,1.280762755206917],[103.87187930252962,1.280921291849142],[103.87183530417737,1.281005853330411],[103.87190898628828,1.280943187878582],[103.87212389270852,1.281101725177329],[103.87207890866344,1.281186176345043],[103.87215357602203,1.281123621882019],[103.87236848292132,1.281282158480701],[103.87232349977997,1.281366609652453],[103.87239845938097,1.281303654770393],[103.87261406156183,1.281462702980866],[103.8725690766286,1.281547154156715],[103.87264304873322,1.281484088045929],[103.8728586518425,1.281643137138872],[103.87281366781299,1.28172758831876],[103.87288764171353,1.281664521296588],[103.87310324305561,1.281823570367671],[103.87305825813273,1.281908021551624],[103.87313223203212,1.281844954522474],[103.87334783520116,1.282004003571615],[103.87330284938493,1.282088454759635],[103.8733768223846,1.282025388627865],[103.87359242468497,1.282184435846389],[103.87338300409787,1.282415218555209],[103.87361327735341,1.282317618593293],[103.87226675587013,1.283649610519056]]],[[[103.7599974841372,1.213045396076188],[103.76152497522628,1.212869931767535],[103.76101728313526,1.21181757318701],[103.76151006380785,1.210059372972035],[103.76083652186193,1.209855376387825],[103.76192291127063,1.210188217929983],[103.7620963989564,1.209879277061265],[103.76252040324654,1.210424730497281],[103.76290599875351,1.2099321123286],[103.76239886502034,1.2085854131225],[103.76301210310132,1.208194783389333],[103.76164314196923,1.207378825907222],[103.76061752648933,1.207752564292024],[103.7615849476927,1.20728753959498],[103.76323195792129,1.207935217429372],[103.76251082294428,1.207282331369562],[103.7634422052743,1.207414779043613],[103.76322256370882,1.206120946609917],[103.76358477832171,1.207107833185599],[103.76596035021592,1.208147868682663],[103.76726996406076,1.208276647327957],[103.77001875202767,1.207581780226763],[103.77528846946933,1.209876108846614],[103.77528559540215,1.210285698388265],[103.780424615623,1.21037236728355],[103.78153356492925,1.205787165684553],[103.78174790015963,1.201794613101629],[103.78135467711853,1.200197577297975],[103.78001404007343,1.198560672192302],[103.77620417277998,1.196483763933866],[103.77532413563985,1.192292476308095],[103.77099660571376,1.188728857378649],[103.76874207884896,1.188297812913906],[103.7665098347534,1.189029425993785],[103.76059605158432,1.194994152965238],[103.76052455452356,1.19625727374188],[103.7631315961022,1.199491689862725],[103.76376134415725,1.201544139397437],[103.76329104779857,1.203854762175974],[103.7628131988085,1.203079405296156],[103.76258790217106,1.203858610067116],[103.76156956016452,1.204149691065622],[103.76259754995743,1.203700998530255],[103.76264825394203,1.202860111532794],[103.76163915559962,1.201934512016998],[103.76091336557138,1.202951523257628],[103.75964640500308,1.201022147254942],[103.75841012179627,1.203099544058884],[103.75764648321125,1.206101305434538],[103.75803579670347,1.208850889635735],[103.7587860270438,1.209816443641892],[103.75920562760908,1.212092736538013],[103.75878803499012,1.217176972496354],[103.7599974841372,1.213045396076188]]],[[[103.84870585792936,1.23088285806857],[103.84953879777282,1.229676992371855],[103.85010909808045,1.230280968256739],[103.85171538191716,1.230626054339532],[103.85113023880874,1.231151393250054],[103.85098958872206,1.230869277453715],[103.85133848882714,1.231514738664898],[103.85779694126296,1.232331925540475],[103.85836328292913,1.231934821629358],[103.85836068788566,1.231055668351245],[103.85736420691262,1.229416329332195],[103.85486659496453,1.228476766847763],[103.85499991369342,1.229018466069755],[103.85408522244921,1.22913162032318],[103.85322107427325,1.227484832082965],[103.85414396447663,1.225572795190838],[103.85521766359575,1.225559405590466],[103.85509122804031,1.226177761848356],[103.85585656772513,1.225910798613642],[103.8563228538669,1.223631635015275],[103.85831300499518,1.221928033529541],[103.85940910428953,1.219751077497771],[103.85896093580084,1.220165224148749],[103.85828453801315,1.219867181597327],[103.85786016084133,1.21865588047376],[103.8584251863882,1.218199839094209],[103.85698625919615,1.217586315400224],[103.85732114071487,1.217873415846829],[103.85376702489735,1.220833203261024],[103.85249816078115,1.222650166652815],[103.85129384123168,1.220854030476813],[103.85158201701557,1.219053095332864],[103.85156590882711,1.21965101385998],[103.85076203491214,1.219510006056855],[103.8511312820233,1.21753073228113],[103.85161989431803,1.217766190452166],[103.85172736353923,1.216089121075255],[103.85127768826354,1.216189963570019],[103.8511738148254,1.215161359919626],[103.85157429841846,1.214723084597314],[103.85207887651129,1.214906625686806],[103.85220876240808,1.21413484391081],[103.85157541149759,1.213355286253278],[103.85030418312638,1.214676255843098],[103.84932486437546,1.214927698032816],[103.84817568765413,1.216892077528783],[103.84317266331784,1.222168500821339],[103.84434309995788,1.22320630610495],[103.84554162441309,1.223473941472255],[103.84638252909899,1.222702847585397],[103.84674980539614,1.223000611661343],[103.84741966453797,1.222323845415897],[103.84860403367523,1.222122069573689],[103.8483375171393,1.221502777994842],[103.85021741981775,1.220465059121123],[103.85057413316908,1.221032509903745],[103.84981904838763,1.221625132599214],[103.8511968675903,1.220959162689863],[103.85228159677382,1.222721443941525],[103.85242283062678,1.224152285377151],[103.85023306561732,1.225765428284798],[103.85107759810982,1.226532149093765],[103.85166484848669,1.226054269457691],[103.85222416489873,1.226262224338629],[103.85213908114011,1.227900700568125],[103.85023865562925,1.227821036953257],[103.84999301113847,1.229149443458966],[103.84812143391775,1.226677047398185],[103.84678766759586,1.226509086715815],[103.84695562468082,1.227295466748855],[103.84897224050384,1.228067629849841],[103.84942349959003,1.229527772805942],[103.84821725367229,1.230863028127831],[103.84807780388914,1.230173392518115],[103.8474080000311,1.23024817359993],[103.84550789276015,1.232133762876149],[103.84587473216358,1.23251334315723],[103.84847467306935,1.231706027121759],[103.84870585792936,1.23088285806857]]],[[[103.92804983465422,1.419668020844078],[103.92826164360054,1.420176287427871],[103.92760426173918,1.420645087271743],[103.92748232988934,1.421828764632426],[103.9263854461298,1.42237578692408],[103.9264015012181,1.423653598281995],[103.92917922227174,1.424329176483699],[103.93048284446897,1.426072208028821],[103.93239853732115,1.426651650396689],[103.93371148602738,1.428102461810484],[103.94294145506488,1.424337159697927],[103.94575635332822,1.423866320860101],[103.94808967637549,1.422626668461703],[103.94906546553509,1.421601127142187],[103.94945558856622,1.420361172835686],[103.95330186238546,1.41868402680467],[103.95355104826255,1.41919927308246],[103.95535050772376,1.419083483254849],[103.95604751366177,1.41769935655086],[103.96140325702473,1.417663541370234],[103.96402750698493,1.418640456991851],[103.96925309121882,1.419079420449273],[103.97042597122557,1.419689957465598],[103.9728525126751,1.419193181453351],[103.97416374936219,1.418206985173937],[103.97565837355353,1.418440707604985],[103.97880870235412,1.417630022174615],[103.98361189198226,1.417888378783093],[103.98570993500428,1.419106459862332],[103.99394439471057,1.4193448376089],[103.99698087809033,1.418005569818305],[103.99918800845379,1.415606237519018],[104.00132950897043,1.410565009482455],[104.0031449226011,1.40383963716858],[104.00271128785275,1.403137689167716],[104.00153141781074,1.402799767520893],[103.99644278540839,1.40405638872232],[103.98874929671645,1.404103658883203],[103.9880887665983,1.402734298279682],[103.98735992008486,1.403288376147722],[103.98758697142858,1.403946925621626],[103.98703011349971,1.404114545092405],[103.97819515305244,1.404170470525693],[103.97467769664837,1.402465813375196],[103.97287690563022,1.403467512234652],[103.97227873022398,1.402700371094405],[103.97071961295138,1.402101422854781],[103.97038062017396,1.402566572213019],[103.96969345141052,1.402359980477941],[103.96815039329009,1.401115131770399],[103.96621965002562,1.401128562207298],[103.96227842014746,1.399738537443814],[103.95844150837618,1.399463883866702],[103.95561226025713,1.402794301760482],[103.95493385868816,1.404897602943046],[103.95348172478647,1.405776716606411],[103.95049491717934,1.405557500021442],[103.94867176295601,1.408985015392825],[103.9488562734016,1.409948206128417],[103.94842038762555,1.409767292117017],[103.94667831787744,1.410993530457278],[103.94467067314706,1.41116201121936],[103.94394663786413,1.411901814316019],[103.94110706826359,1.412722811090586],[103.9389526991732,1.414278215014858],[103.93772716928314,1.414215372399148],[103.9369336004845,1.415189316105063],[103.93442226035128,1.415655933064425],[103.9336669672482,1.417226393423123],[103.93215326425845,1.417501764055239],[103.93158159780192,1.416996530199033],[103.93065700426709,1.417175642312258],[103.92877407846618,1.419159973301251],[103.92838120913451,1.418994953342869],[103.92855848870938,1.419651350504866],[103.92804983465422,1.419668020844078]]],[[[104.05407956718199,1.432306252211724],[104.05482607109057,1.431329433467545],[104.05577783407156,1.431835938931277],[104.05825784595916,1.431591681893024],[104.06983338337865,1.4270871783703],[104.07269793138806,1.425308012120934],[104.0778410623836,1.420605796057265],[104.08050699925717,1.418987781547032],[104.0850915106642,1.410140511061846],[104.08508391737266,1.408966170481791],[104.0837179621248,1.407177106789954],[104.0865685771669,1.406263316179392],[104.08822840492978,1.403927935991627],[104.08843518192293,1.399824510881422],[104.08768029907698,1.396217482598163],[104.07952887358027,1.381147312443684],[104.07617609662526,1.371630713674747],[104.07460227255989,1.363080664888636],[104.07465804272636,1.35826276443737],[104.07550837483625,1.354816267557051],[104.07914062788683,1.348020513808196],[104.08407712868186,1.340522138335452],[104.0840036977234,1.338828722465351],[104.08261850378112,1.337605315343478],[104.08051019847689,1.338039738421929],[104.03250209743743,1.378808822304053],[104.02158197657889,1.388729632358938],[104.0178208268236,1.39434513811929],[104.01554203235803,1.401230956007659],[104.01651788282118,1.402013215417783],[104.02491658531106,1.40176915614007],[104.0285220235409,1.403139923192861],[104.02964067861276,1.404707816951478],[104.02953359261123,1.405787840985213],[104.02851051570862,1.406770240811002],[104.02833910314178,1.408116216854042],[104.0301821293942,1.411401767654972],[104.02864775329361,1.412112749071782],[104.02697058785958,1.411954002566176],[104.02459533187921,1.409506744764347],[104.02242319019479,1.408629637110148],[104.01436763669507,1.408998251138208],[104.01223725248566,1.410806815688282],[104.00928289652373,1.418684111734397],[104.00909863235925,1.422472157266256],[104.01076582549045,1.425934273392217],[104.02126624344193,1.435398163302797],[104.02449301595682,1.437127058786116],[104.03643248460413,1.440450386908764],[104.04037938495068,1.440564981527451],[104.04374345436025,1.439587426236057],[104.04679144475858,1.43503854423126],[104.05358542024804,1.433762224512666],[104.05434018552235,1.433160826248206],[104.05407956718199,1.432306252211724]]],[[[103.75053608833116,1.236058243909463],[103.75447516256102,1.234283052032968],[103.75495893895418,1.235362696655604],[103.75647287084209,1.23652768916074],[103.75739694519056,1.236659435701109],[103.75984605015404,1.231199990326275],[103.76360790741322,1.229770755484171],[103.76727565161174,1.230029805149811],[103.7697849478652,1.228576154415445],[103.77077952826848,1.227428313058319],[103.76889550781166,1.224995599233087],[103.76382863884297,1.225209480646784],[103.75906828092094,1.22625180590091],[103.75212528204916,1.229852483566256],[103.74526336578108,1.231352151729583],[103.74266913268143,1.231330457141711],[103.74015998743354,1.232873261312438],[103.7396717331087,1.234106145499458],[103.74001141733484,1.234901672312424],[103.7433365059802,1.236728603241442],[103.746287350907,1.237296317423496],[103.74931692695273,1.236972608089576],[103.75053608833116,1.236058243909463]]],[[[103.87235910708137,1.440049468288112],[103.87264654842105,1.43883888500667],[103.87224721219711,1.437940862512975],[103.8695117974888,1.435776851637586],[103.86746429565162,1.43533829861639],[103.86562700746539,1.435994541664251],[103.86364738355834,1.438166945359426],[103.8617153381308,1.441621709064297],[103.85990907189468,1.44298291853562],[103.85973631574173,1.445885902426091],[103.85783901334081,1.44968503230743],[103.85763356459124,1.451385715562308],[103.86036640108654,1.452709697906742],[103.86151842784655,1.45249539751739],[103.87235910708137,1.440049468288112]]],[[[103.76121857270068,1.240362970806554],[103.76502557232163,1.239682416919078],[103.76941781396042,1.235984508685474],[103.77048803988323,1.234169688748185],[103.77129151927583,1.233719879426785],[103.77169665362744,1.23430877052411],[103.77211056349682,1.233938317075812],[103.77189475859451,1.233692354702685],[103.77657731787238,1.229499308501135],[103.77710887861993,1.228696587482054],[103.77679849434045,1.227561415784361],[103.77765876101599,1.227186454424769],[103.77898902227052,1.224050020539101],[103.77631449673727,1.224763094345277],[103.77326531542806,1.224908583932604],[103.77254304998078,1.227703151558831],[103.7707802218446,1.229325173847945],[103.76712411681255,1.230732112895968],[103.76297600517096,1.231140818615005],[103.7607139179854,1.232451648463127],[103.7596248922458,1.238819283178156],[103.76012502470834,1.239110264648772],[103.76006843617097,1.239845623541232],[103.76121857270068,1.240362970806554]]],[[[103.72276288837602,1.213305065167271],[103.72489921254196,1.212652165361138],[103.72355880280972,1.213054869382496],[103.72326220572519,1.212108883750747],[103.7242183020179,1.210605707318931],[103.72531397357919,1.209974849187802],[103.72704277704975,1.210151277903392],[103.72846973943284,1.211132578576349],[103.72809892122987,1.211692246884775],[103.72928640945351,1.211069267697544],[103.73063006723497,1.207900771578744],[103.73000046717418,1.209398953970247],[103.7291986610982,1.209644340370406],[103.72805945573424,1.209154961109812],[103.72738110884417,1.207916055513663],[103.7284155534887,1.206831095238466],[103.72965391438116,1.206698319091234],[103.73164443308562,1.20522765462906],[103.73240013812651,1.205387239867177],[103.73198161739798,1.205957398616184],[103.73365031313732,1.203540113516491],[103.73176366452982,1.203312975743068],[103.73210850179852,1.203858672866783],[103.73174098932677,1.204440138056234],[103.72981568744456,1.204900630590057],[103.72968085330258,1.203115383805385],[103.73086101367498,1.203260642399147],[103.72689745320774,1.202501791661609],[103.72318553323075,1.203261715116344],[103.71686676177951,1.202548460690341],[103.70778465267773,1.20407040641021],[103.7071063204076,1.20471963535738],[103.7074574320592,1.205701409471797],[103.7106731649393,1.207714037886415],[103.7138558724066,1.211208758508372],[103.72112477213551,1.213327063767093],[103.72276288837602,1.213305065167271]]],[[[103.79302853775651,1.210554022626504],[103.79532644806459,1.208387191500066],[103.79661012762037,1.207906629573905],[103.79840275139668,1.204765582012591],[103.80132895335727,1.201804552454758],[103.8013847011662,1.200672966878632],[103.7984263976495,1.201434776864987],[103.79352726505229,1.204516677718899],[103.79190473411222,1.207914760459328],[103.79182857192953,1.210556862203838],[103.79302853775651,1.210554022626504]]],[[[103.72686196163949,1.19224186275181],[103.72924304065694,1.19201339445576],[103.7295760140198,1.19140858650741],[103.72797297074415,1.190921127342707],[103.72780021636483,1.190409802322453],[103.72900515508354,1.191213936627221],[103.73016645297028,1.191080813017183],[103.731671417392,1.188580555703985],[103.73090666056422,1.187917438451692],[103.7309872690601,1.187601031581498],[103.73172929745743,1.187888873021211],[103.73154263299796,1.186657954160596],[103.73048424786533,1.186897263769303],[103.72930745584206,1.185979534108779],[103.7283255902976,1.18828922449535],[103.72919639025704,1.186497251211869],[103.72889357281665,1.185864582792599],[103.7283066169691,1.187016638856584],[103.7274528561588,1.187281602839066],[103.7266677019617,1.186924592863844],[103.72829322288166,1.186947029443574],[103.7287015515719,1.186150580631743],[103.72838910292475,1.18335174280538],[103.72698385684785,1.183447470139984],[103.72544322536845,1.182581011469436],[103.72436515734594,1.183228005328443],[103.72206229948743,1.181455124968053],[103.72119469613092,1.181220606398469],[103.7207489733907,1.181723043778601],[103.71908527272609,1.18008337287029],[103.71942984519826,1.180828076439685],[103.71895213142469,1.182967762460345],[103.71726620002762,1.186998839960718],[103.72129400339487,1.187592369294662],[103.72234147758834,1.186772994851014],[103.72208226333179,1.188234988033419],[103.72376673062128,1.19111902704031],[103.72686196163949,1.19224186275181]]],[[[103.85539453400801,1.240894332384193],[103.85515874644135,1.23953484833497],[103.8540702421907,1.238862089939643],[103.85023879151414,1.240519195607851],[103.84903793006545,1.240109521102416],[103.84602940244245,1.23773954340747],[103.84518596213613,1.237766395226169],[103.8447302249201,1.238445418156614],[103.84520367383438,1.239786122116138],[103.84927624945986,1.242543583280173],[103.85209368765767,1.245526177193409],[103.85419555415075,1.244050153293351],[103.85539453400801,1.240894332384193]]]]}}]}